# From MPC 82723
273P/Pons-Gambart,e,136.7661,320.3996,20.3262,31.91876,0.0054656,0.97422351,0.0000,12/19.9241/2012,2000,g 11.5,4.0
# From MPEC 2022-GA9
274P/Tombaugh-Tenagra,e,15.8157,81.3398,38.4696,4.375499,0.1076869,0.43934014,1.2419,04/20.0/2022,2000,g 13.0,4.0
# From MPC 81862
275P/Hermann,e,21.2758,348.7576,174.0119,5.775344,0.0710129,0.71259689,242.4067,04/20.0/2022,2000,g 17.0,4.0
# From MPEC 2020-K19
276P/Vorobjov,e,14.8101,211.3657,199.5723,5.321945,0.0802784,0.26756479,282.2250,04/20.0/2022,2000,g 11.5,4.0
# From MPEC 2021-F20
277P/LINEAR,e,16.7768,276.3302,152.3178,3.853482,0.1302939,0.50591341,61.9924,04/20.0/2022,2000,g 15.1,4.0
# From MPEC 2021-S45
278P/McNaught,e,6.6957,15.3818,237.8262,3.688583,0.1391280,0.43600347,81.4377,04/20.0/2022,2000,g 14.0,4.0
# From MPC100285
279P/La Sagra,e,5.0525,346.2331,5.8431,3.573012,0.1459326,0.39868757,306.7965,04/20.0/2022,2000,g 14.0,4.0
# From MPC 89013
280P/Larsen,e,11.7740,131.3933,104.7579,4.530044,0.1022234,0.41736068,311.7780,04/20.0/2022,2000,g 12.5,4.0
# From MPEC 2021-W31
281P/MOSS,e,4.7189,87.1805,26.6710,4.874559,0.0915801,0.17233834,333.6496,04/20.0/2022,2000,g 11.0,4.0
# From MPC133426
282P/,e,5.8117,9.2974,217.6322,4.239764,0.1128994,0.18839178,20.0239,04/20.0/2022,2000,g 13.5,2.0
# From MPEC 2021-BE3
283P/Spacewatch,e,14.4552,161.1292,22.2378,4.137344,0.1171175,0.48465532,26.2367,04/20.0/2022,2000,g 16.0,2.0
# From MPEC 2022-D36
284P/McNaught,e,11.8613,144.2615,202.4117,3.676204,0.1398314,0.37554603,30.6815,04/20.0/2022,2000,g 13.0,4.0
# From MPC 85339
285P/LINEAR,e,25.0383,185.5073,178.4380,4.507619,0.1029872,0.61857183,332.4623,04/20.0/2022,2000,g 15.0,4.0
# From MPEC 2021-O56
286P/Christensen,e,17.0445,283.9565,24.8574,4.110106,0.1182836,0.42556151,357.3215,04/20.0/2022,2000,g 14.0,4.0
# From MPC 96868
287P/Christensen,e,16.3200,139.0422,189.0474,4.163436,0.1160182,0.27104422,308.8816,04/20.0/2022,2000,g 13.5,4.0
# From MPC133426
288P/,e,3.2379,83.1308,280.2581,3.050038,0.1850317,0.20100666,9.0845,04/20.0/2022,2000,g 16.0,2.0
# From MPEC 2021-S45
289P/Blanpain,e,5.8968,68.8827,9.8458,3.046113,0.1853895,0.68568894,157.7654,04/20.0/2022,2000,g 19.0,4.0
# From MPC 95214
290P/Jager,e,20.0708,302.6815,181.8871,6.214790,0.0636157,0.62767199,191.1802,04/20.0/2022,2000,g 10.5,4.0
# From MPEC 2021-N06
291P/NEAT,e,6.2984,237.8438,173.6097,4.538328,0.1019437,0.43560624,321.2676,04/20.0/2022,2000,g 13.0,4.0
# From MPC115887
292P/Li,e,24.2759,90.9511,319.4833,6.104457,0.0653482,0.58903905,196.0162,04/20.0/2022,2000,g 12.5,4.0
# From MPEC 2021-S45
293P/Spacewatch,e,9.0576,78.3999,41.0024,3.642328,0.1417867,0.41824334,69.0318,04/20.0/2022,2000,g 14.5,4.0
# From MPEC 2020-SI8
294P/LINEAR,e,18.0673,312.1821,235.4641,3.191008,0.1729069,0.60130582,150.2484,04/20.0/2022,2000,g 15.5,4.0
# From MPC 93589
295P/LINEAR,e,21.0741,7.4378,72.8743,5.305981,0.0806409,0.61658979,234.5231,04/20.0/2022,2000,g 12.0,4.0
# From MPEC 2021-N06
296P/Garradd,e,25.2339,263.5797,350.0432,3.494059,0.1509068,0.47873340,87.4239,04/20.0/2022,2000,g 14.0,4.0
# From MPC102956
297P/Beshore,e,10.3145,97.5841,132.8783,3.450390,0.1537807,0.32020780,69.3617,04/20.0/2022,2000,g 15.0,4.0
# From MPC114609
298P/Christensen,e,7.8708,52.8219,100.6570,3.590770,0.1448514,0.38638023,85.5847,04/20.0/2022,2000,g 15.0,4.0
# From MPEC 2022-CN4
299P/Catalina-PANSTARRS,e,10.4702,271.6182,323.8278,4.386807,0.1072707,0.28108734,280.4020,04/20.0/2022,2000,g 11.5,4.0
# From MPEC 2022-ED3
300P/Catalina,e,5.6740,95.6376,222.9263,2.699558,0.2222107,0.69175787,280.8751,04/20.0/2022,2000,g 16.0,4.0
# From MPC 89014
301P/LINEAR-NEAT,e,10.3398,351.1749,193.6324,5.739585,0.0716776,0.58520217,200.3704,04/20.0/2022,2000,g 13.0,4.0
# From MPEC 2020-HN5
302P/Lemmon-PANSTARRS,e,6.0337,121.7464,208.3638,4.274635,0.1115207,0.23030229,242.5833,04/20.0/2022,2000,g 12.5,4.0
# From MPC 92278
303P/NEAT,e,7.0216,347.9720,356.9342,5.045486,0.0869660,0.51089473,238.1726,04/20.0/2022,2000,g 13.5,4.0
# From MPEC 2020-N08
304P/Ory,e,2.6070,58.9166,335.2451,3.150679,0.1762373,0.60075183,108.4643,04/20.0/2022,2000,g 16.5,4.0
# From MPC101100
305P/Skiff,e,11.6600,240.1041,147.3295,4.642169,0.0985423,0.69373434,267.1543,04/20.0/2022,2000,g 18.0,4.0
# From MPC 92278
306P/LINEAR,e,8.3112,341.3733,0.8666,3.123743,0.1785217,0.59329529,146.0173,04/20.0/2022,2000,g 19.0,4.0
# From MPC 92278
307P/LINEAR,e,4.4355,158.1668,222.1340,5.790961,0.0707258,0.67525997,189.1636,04/20.0/2022,2000,g 15.0,4.0
# From MPEC 2022-C56
308P/Lagerkvist-Carsenty,e,4.8528,63.0573,333.6115,6.601339,0.0581107,0.36413095,147.5087,04/20.0/2022,2000,g 13.0,2.0
# From MPC 94284
309P/LINEAR,e,17.0237,10.1464,49.9383,4.372493,0.1077979,0.61796280,283.5422,04/20.0/2022,2000,g 15.0,4.0
# From MPC 98566
310P/Hill,e,13.1278,8.9218,31.7846,4.180031,0.1153280,0.42211810,296.3001,04/20.0/2022,2000,g 13.5,4.0
# From MPEC 2021-BE3
311P/PANSTARRS,e,4.9697,279.2148,144.5284,2.188423,0.3044438,0.11571996,170.3739,04/20.0/2022,2000,g 17.0,4.0
# From MPEC 2021-BE3
312P/NEAT,e,19.7677,144.6701,207.6050,3.468285,0.1525920,0.42786990,87.2600,04/20.0/2022,2000,g 16.0,4.0
# From MPEC 2021-S45
313P/Gibbs,e,10.9806,105.9693,254.7794,3.163555,0.1751625,0.23503357,128.6036,04/20.0/2022,2000,g 15.0,4.0
# From MPC105243
314P/Montani,e,3.9827,267.6073,214.0168,7.262974,0.0503538,0.41625013,101.7493,04/20.0/2022,2000,g  9.5,4.0
# From MPEC 2021-N06
315P/LONEOS,e,17.7419,68.8244,65.7298,4.939989,0.0897667,0.52096715,176.9270,04/20.0/2022,2000,g 11.0,4.0
# From MPC 92279
316P/LONEOS-Christensen,e,9.8270,246.4470,192.5680,4.373339,0.1077667,0.15604477,258.7359,04/20.0/2022,2000,g 13.5,4.0
# From MPEC 2020-C98
317P/WISE,e,11.9512,275.4921,334.8573,2.963044,0.1932400,0.57050165,110.3260,04/20.0/2022,2000,g 17.5,4.0
# From MPC102103
318P/McNaught-Hartley,e,17.8841,35.5360,313.2604,7.501381,0.0479725,0.67528950,113.6111,04/20.0/2022,2000,g  8.5,6.0
# From MPC 97499
319P/Catalina-McNaught,e,15.0948,111.3699,203.6776,3.566994,0.1463021,0.66667261,2.8628,04/20.0/2022,2000,g 15.0,4.0
# From MPC 96281
320P/McNaught,e,4.9081,295.9367,0.7818,3.093738,0.1811252,0.68554650,82.9397,04/20.0/2022,2000,g 20.5,4.0
# From MPC105243
321P/SOHO,e,20.0924,165.0173,172.7484,2.423440,0.2612496,0.98111144,0.0000,10/26.5096/2023,2000,g 20.0,4.0
# From MPC102103
322P/SOHO,e,11.4681,351.5297,56.8725,2.507865,0.2481691,0.97990908,0.0000,08/21.0858/2023,2000,g 19.0,4.0
# From MPEC 2016-Y36
323P/SOHO,e,5.3342,324.3853,353.0512,2.583051,0.2374131,0.98481916,0.0000,01/17.7978/2021,2000,g 20.0,4.0
# From MPEC 2021-W31
324P/LaSagra,e,21.4041,270.5853,57.5379,3.094574,0.1810518,0.15389527,63.3268,04/20.0/2022,2000,g 13.0,4.0
# From MPEC 2022-GA9
325P/Yang-Gao,e,16.6945,257.5598,343.7025,3.522738,0.1490677,0.59338394,3.2512,04/20.0/2022,2000,g 14.0,4.0
# From MPC103849
326P/Hill,e,2.4710,99.8089,278.6278,4.062721,0.1203590,0.31806687,285.4313,04/20.0/2022,2000,g 13.5,4.0
# From MPC 97499
327P/Van Ness,e,36.2512,173.9849,185.0465,3.562405,0.1465849,0.56321064,340.1474,04/20.0/2022,2000,g 16.0,4.0
# From MPC109148
328P/LONEOS-Tucker,e,17.6731,341.6349,30.5252,4.192788,0.1148021,0.55254303,264.7244,04/20.0/2022,2000,g 14.5,4.0
# From MPC101101
329P/LINEAR-Catalina,e,21.6879,87.6634,343.5302,5.189792,0.0833641,0.67768702,194.4684,04/20.0/2022,2000,g 13.5,4.0
# From MPC105243
330P/Catalina,e,15.7001,293.0891,188.8979,6.625203,0.0577970,0.54844179,119.2631,04/20.0/2022,2000,g 12.0,4.0
# From MPEC 2022-C56
331P/Gibbs,e,9.7381,216.7596,184.2733,3.005159,0.1891920,0.04114696,106.8598,04/20.0/2022,2000,g 12.0,4.0
# From MPEC 2016-K18
332P/Ikeya-Murakami,e,9.3800,3.7861,152.3258,3.088603,0.1815771,0.48939130,44.4161,04/20.0/2022,2000,g 18.0,4.0
# From MPEC 2016-EI8
332P-B/Ikeya-Murakami,e,9.3805,3.8028,152.3711,3.082329,0.1821317,0.48970701,359.9699,03/17.0/2016,2000,g 19.0,4.0
# From MPEC 2016-K18
332P-C/Ikeya-Murakami,e,9.3791,3.7865,152.3170,3.088568,0.1815801,0.48939676,44.4310,04/20.0/2022,2000,g 16.5,4.0
# From MPEC 2016-ED0
332P-D/Ikeya-Murakami,e,9.3761,3.7923,152.4393,3.081138,0.1822373,0.48977814,359.9486,03/17.0/2016,2000,g 19.0,4.0
# From MPEC 2016-ED0
332P-E/Ikeya-Murakami,e,9.3774,3.8228,152.2825,3.079877,0.1823493,0.48922008,359.9889,03/17.0/2016,2000,g 21.0,4.0
# From MPEC 2016-ED0
332P-F/Ikeya-Murakami,e,9.5293,3.4757,152.8203,3.163214,0.1751908,0.49918860,359.8501,03/17.0/2016,2000,g 21.0,4.0
# From MPEC 2016-ED0
332P-G/Ikeya-Murakami,e,9.2523,3.6955,154.4000,3.050519,0.1849880,0.49200362,359.9006,03/19.0/2016,2000,g 19.0,4.0
# From MPC100285
332P-H/Ikeya-Murakami,e,9.3796,3.7862,152.3177,3.088753,0.1815638,0.48943199,44.3619,04/20.0/2022,2000,g 19.0,4.0
# From MPEC 2016-ED0
332P-I/Ikeya-Murakami,e,9.3791,3.8048,152.3297,3.081767,0.1821815,0.48955490,359.9360,03/17.0/2016,2000,g 20.5,2.0
# From MPEC 2016-EI8
332P-J/Ikeya-Murakami,e,9.4296,3.6729,152.7712,3.115165,0.1792596,0.49429435,359.8613,03/17.0/2016,2000,g 20.5,2.0
# From MPEC 2020-L06
333P/LINEAR,e,131.9920,115.6386,25.9882,4.220386,0.1136779,0.73662992,251.5365,04/20.0/2022,2000,g 15.0,4.0
# From MPC115888
334P/NEAT,e,20.4089,90.6253,90.1181,6.838252,0.0551171,0.35074879,98.1089,04/20.0/2022,2000,g 10.5,4.0
# From MPEC 2021-U31
335P/Gibbs,e,7.2934,330.8467,162.3118,3.577235,0.1456743,0.54606421,343.3906,04/20.0/2022,2000,g 17.0,4.0
# From MPC105244
336P/McNaught,e,17.8307,298.2495,308.7428,5.034565,0.0872491,0.44440852,166.1254,04/20.0/2022,2000,g 13.5,4.0
# From MPEC 2022-H04
337P/WISE,e,15.3710,106.0614,161.0288,3.285879,0.1654728,0.49661099,348.0606,04/20.0/2022,2000,g 17.0,4.0
# From MPC104796
338P/McNaught,e,25.3855,9.7976,4.4421,3.895392,0.1281968,0.41190987,252.8524,04/20.0/2022,2000,g 12.0,4.0
# From MPC101101
339P/Gibbs,e,5.7333,172.7243,27.4882,3.698254,0.1385827,0.63547709,290.9816,04/20.0/2022,2000,g 17.0,4.0
# From MPC133426
340P/Boattini,e,2.0784,291.6939,35.9307,4.250635,0.1124666,0.28085848,222.1115,04/20.0/2022,2000,g 14.3,4.0
# From MPEC 2021-BE3
341P/Gibbs,e,3.7968,29.9695,312.2205,4.291904,0.1108483,0.41571641,238.2928,04/20.0/2022,2000,g 12.5,4.0
